{
  "links" : {
    "next" : "https://api.nasa.gov/neo/rest/v1/feed?start_date=2001-09-09&end_date=2001-09-09&detailed=true&api_key=t0TVs3DtDT2H8Oy2Zy8m2eVrNsAVKAexjcZXUckd",
    "prev" : "https://api.nasa.gov/neo/rest/v1/feed?start_date=2001-09-07&end_date=2001-09-07&detailed=true&api_key=t0TVs3DtDT2H8Oy2Zy8m2eVrNsAVKAexjcZXUckd",
    "self" : "https://api.nasa.gov/neo/rest/v1/feed?start_date=2001-09-08&end_date=2001-09-08&detailed=true&api_key=t0TVs3DtDT2H8Oy2Zy8m2eVrNsAVKAexjcZXUckd"
  },
  "element_count" : 2,
  "near_earth_objects" : {
    "2001-09-08" : [ {
      "links" : {
        "self" : "https://api.nasa.gov/neo/rest/v1/neo/3091713?api_key=t0TVs3DtDT2H8Oy2Zy8m2eVrNsAVKAexjcZXUckd"
      },
      "neo_reference_id" : "3091713",
      "name" : "(2001 PH9)",
      "nasa_jpl_url" : "http://ssd.jpl.nasa.gov/sbdb.cgi?sstr=3091713",
      "absolute_magnitude_h" : 21.2,
      "estimated_diameter" : {
        "kilometers" : {
          "estimated_diameter_min" : 0.1529519353,
          "estimated_diameter_max" : 0.3420109247
        },
        "meters" : {
          "estimated_diameter_min" : 152.9519353442,
          "estimated_diameter_max" : 342.0109247198
        },
        "miles" : {
          "estimated_diameter_min" : 0.095039897,
          "estimated_diameter_max" : 0.2125156703
        },
        "feet" : {
          "estimated_diameter_min" : 501.8108275547,
          "estimated_diameter_max" : 1122.0831222578
        }
      },
      "is_potentially_hazardous_asteroid" : false,
      "close_approach_data" : [ {
        "close_approach_date" : "2001-09-08",
        "epoch_date_close_approach" : 999932400000,
        "relative_velocity" : {
          "kilometers_per_second" : "3.6139944014",
          "kilometers_per_hour" : "13010.3798449469",
          "miles_per_hour" : "8084.1440764338"
        },
        "miss_distance" : {
          "astronomical" : "0.2869849246",
          "lunar" : "111.6371307373",
          "kilometers" : "42932332",
          "miles" : "26676916"
        },
        "orbiting_body" : "Earth"
      } ],
      "orbital_data" : {
        "orbit_id" : "21",
        "orbit_determination_date" : "2017-04-06 09:16:16",
        "orbit_uncertainty" : "0",
        "minimum_orbit_intersection" : ".256524",
        "jupiter_tisserand_invariant" : "3.122",
        "epoch_osculation" : "2458000.5",
        "eccentricity" : ".5424866687207134",
        "semi_major_axis" : "2.719990608199483",
        "inclination" : "5.444723009107083",
        "ascending_node_longitude" : "287.6952135636965",
        "orbital_period" : "1638.511649863123",
        "perihelion_distance" : "1.244431964205718",
        "perihelion_argument" : "65.33447757832533",
        "aphelion_distance" : "4.195549252193247",
        "perihelion_time" : "2458721.956244074384",
        "mean_anomaly" : "201.4877014219124",
        "mean_motion" : ".2197115901068347",
        "equinox" : "J2000"
      }
    }, {
      "links" : {
        "self" : "https://api.nasa.gov/neo/rest/v1/neo/3529624?api_key=t0TVs3DtDT2H8Oy2Zy8m2eVrNsAVKAexjcZXUckd"
      },
      "neo_reference_id" : "3529624",
      "name" : "(2010 LL68)",
      "nasa_jpl_url" : "http://ssd.jpl.nasa.gov/sbdb.cgi?sstr=3529624",
      "absolute_magnitude_h" : 22.9,
      "estimated_diameter" : {
        "kilometers" : {
          "estimated_diameter_min" : 0.0699125232,
          "estimated_diameter_max" : 0.1563291544
        },
        "meters" : {
          "estimated_diameter_min" : 69.9125232246,
          "estimated_diameter_max" : 156.3291544087
        },
        "miles" : {
          "estimated_diameter_min" : 0.0434416145,
          "estimated_diameter_max" : 0.097138403
        },
        "feet" : {
          "estimated_diameter_min" : 229.3718026961,
          "estimated_diameter_max" : 512.8909429502
        }
      },
      "is_potentially_hazardous_asteroid" : false,
      "close_approach_data" : [ {
        "close_approach_date" : "2001-09-08",
        "epoch_date_close_approach" : 999932400000,
        "relative_velocity" : {
          "kilometers_per_second" : "16.6413868181",
          "kilometers_per_hour" : "59908.9925451532",
          "miles_per_hour" : "37225.1181734036"
        },
        "miss_distance" : {
          "astronomical" : "0.2490892615",
          "lunar" : "96.8957214355",
          "kilometers" : "37263224",
          "miles" : "23154294"
        },
        "orbiting_body" : "Earth"
      } ],
      "orbital_data" : {
        "orbit_id" : "10",
        "orbit_determination_date" : "2017-04-06 08:57:18",
        "orbit_uncertainty" : "6",
        "minimum_orbit_intersection" : ".139184",
        "jupiter_tisserand_invariant" : "3.567",
        "epoch_osculation" : "2458000.5",
        "eccentricity" : ".5246220328920504",
        "semi_major_axis" : "2.072834567264354",
        "inclination" : "10.49177284578303",
        "ascending_node_longitude" : "192.3787150118576",
        "orbital_period" : "1090.047418116771",
        "perihelion_distance" : ".9853798827372152",
        "perihelion_argument" : "98.73952940912289",
        "aphelion_distance" : "3.160289251791494",
        "perihelion_time" : "2457573.804809728909",
        "mean_anomaly" : "140.920721378322",
        "mean_motion" : ".3302608620659428",
        "equinox" : "J2000"
      }
    } ]
  }
}